{"type": "FeatureCollection", "features": [ {"type": "Feature", "properties": {"norad_id": 30396, "name": "FENGYUN 1C DEB", "group": "fengyun-1c-debris", "lat": -58.661164647285304, "lon": 18.15787738044267, "alt_km": 1030.2674282934968, "timestamp": "2025-12-27T08:36:18.658562+00:00", "meta": {"OBJECT_NAME": "FENGYUN 1C DEB", "OBJECT_ID": "1999-025ADK", "EPOCH": "2025-12-26T22:48:42.475104", "MEAN_MOTION": 13.87173251, "ECCENTRICITY": 0.0135257, "INCLINATION": 98.224, "RA_OF_ASC_NODE": 4.0599, "ARG_OF_PERICENTER": 90.6945, "MEAN_ANOMALY": 333.8769, "EPHEMERIS_TYPE": 0, "CLASSIFICATION_TYPE": "U", "NORAD_CAT_ID": 30396, "ELEMENT_SET_NO": 999, "REV_AT_EPOCH": 95776, "BSTAR": 0.0001296, "MEAN_MOTION_DOT": 1.28e-06, "MEAN_MOTION_DDOT": 0}, "tle": {"line1": "1 30396U 99025ADK 25360.95049161  .00000128  00000+0  12960-3 0  9998", "line2": "2 30396  98.2240   4.0599 0135257  90.6945 333.8769 13.87173251957762"}}, "geometry": {"type": "Point", "coordinates": [18.15787738044267, -58.661164647285304]}}, {"type": "Feature", "properties": {"norad_id": 30397, "name": "FENGYUN 1C DEB", "group": "fengyun-1c-debris", "lat": 67.3738269400279, "lon": 127.57705245656875, "alt_km": 788.0583079606113, "timestamp": "2025-12-27T08:36:18.658572+00:00", "meta": {"OBJECT_NAME": "FENGYUN 1C DEB", "OBJECT_ID": "1999-025ADL", "EPOCH": "2025-12-26T15:23:33.154080", "MEAN_MOTION": 13.98633404, "ECCENTRICITY": 0.0149429, "INCLINATION": 98.4065, "RA_OF_ASC_NODE": 147.6997, "ARG_OF_PERICENTER": 53.4916, "MEAN_ANOMALY": 5.8397, "EPHEMERIS_TYPE": 0, "CLASSIFICATION_TYPE": "U", "NORAD_CAT_ID": 30397, "ELEMENT_SET_NO": 999, "REV_AT_EPOCH": 95959, "BSTAR": 0.0012176, "MEAN_MOTION_DOT": 1.885e-05, "MEAN_MOTION_DDOT": 0}, "tle": {"line1": "1 30397U 99025ADL 25360.64135595  .00001885  00000+0  12176-2 0  9991", "line2": "2 30397  98.4065 147.6997 0149429  53.4916   5.8397 13.98633404959596"}}, "geometry": {"type": "Point", "coordinates": [127.57705245656875, 67.3738269400279]}}, {"type": "Feature", "properties": {"norad_id": 30398, "name": "FENGYUN 1C DEB", "group": "fengyun-1c-debris", "lat": 21.154506368641748, "lon": 82.04216194201852, "alt_km": 986.794003692381, "timestamp": "2025-12-27T08:36:18.658582+00:00", "meta": {"OBJECT_NAME": "FENGYUN 1C DEB", "OBJECT_ID": "1999-025ADM", "EPOCH": "2025-12-26T16:17:13.186176", "MEAN_MOTION": 13.78712064, "ECCENTRICITY": 0.01724028, "INCLINATION": 99.7144, "RA_OF_ASC_NODE": 257.5451, "ARG_OF_PERICENTER": 259.6106, "MEAN_ANOMALY": 127.8207, "EPHEMERIS_TYPE": 0, "CLASSIFICATION_TYPE": "U", "NORAD_CAT_ID": 30398, "ELEMENT_SET_NO": 999, "REV_AT_EPOCH": 94949, "BSTAR": 0.00044531222, "MEAN_MOTION_DOT": 4.57e-06, "MEAN_MOTION_DDOT": 0}, "tle": {"line1": "1 30398U 99025ADM 25360.67862484  .00000457  00000+0  44531-3 0  9994", "line2": "2 30398  99.7144 257.5451 0172402 259.6106 127.8207 13.78712064949494"}}, "geometry": {"type": "Point", "coordinates": [82.04216194201852, 21.154506368641748]}}, {"type": "Feature", "properties": {"norad_id": 30400, "name": "FENGYUN 1C DEB", "group": "fengyun-1c-debris", "lat": -12.287548639763683, "lon": 107.14315973310443, "alt_km": 895.7648286043659, "timestamp": "2025-12-27T08:36:18.658592+00:00", "meta": {"OBJECT_NAME": "FENGYUN 1C DEB", "OBJECT_ID": "1999-025ADP", "EPOCH": "2025-12-26T18:11:23.273664", "MEAN_MOTION": 14.10218375, "ECCENTRICITY": 0.02252674, "INCLINATION": 99.1563, "RA_OF_ASC_NODE": 288.5445, "ARG_OF_PERICENTER": 296.893, "MEAN_ANOMALY": 90.3082, "EPHEMERIS_TYPE": 0, "CLASSIFICATION_TYPE": "U", "NORAD_CAT_ID": 30400, "ELEMENT_SET_NO": 999, "REV_AT_EPOCH": 95712, "BSTAR": 0.0040941818, "MEAN_MOTION_DOT": 9.147e-05, "MEAN_MOTION_DDOT": 0}, "tle": {"line1": "1 30400U 99025ADP 25360.75790826  .00009147  00000+0  40942-2 0  9993", "line2": "2 30400  99.1563 288.5445 0225267 296.8930  90.3082 14.10218375957127"}}, "geometry": {"type": "Point", "coordinates": [107.14315973310443, -12.287548639763683]}}, {"type": "Feature", "properties": {"norad_id": 30401, "name": "FENGYUN 1C DEB", "group": "fengyun-1c-debris", "lat": 74.77976557499638, "lon": -156.7732585848897, "alt_km": 714.3287787024992, "timestamp": "2025-12-27T08:36:18.658602+00:00", "meta": {"OBJECT_NAME": "FENGYUN 1C DEB", "OBJECT_ID": "1999-025ADQ", "EPOCH": "2025-12-27T03:12:11.167776", "MEAN_MOTION": 14.28002951, "ECCENTRICITY": 0.0108148, "INCLINATION": 98.9464, "RA_OF_ASC_NODE": 238.3755, "ARG_OF_PERICENTER": 86.0886, "MEAN_ANOMALY": 275.265, "EPHEMERIS_TYPE": 0, "CLASSIFICATION_TYPE": "U", "NORAD_CAT_ID": 30401, "ELEMENT_SET_NO": 999, "REV_AT_EPOCH": 98509, "BSTAR": 0.00016875, "MEAN_MOTION_DOT": 4e-06, "MEAN_MOTION_DDOT": 0}, "tle": {"line1": "1 30401U 99025ADQ 25361.13346259  .00000400  00000+0  16875-3 0  9996", "line2": "2 30401  98.9464 238.3755 0108148  86.0886 275.2650 14.28002951985091"}}, "geometry": {"type": "Point", "coordinates": [-156.7732585848897, 74.77976557499638]}}, {"type": "Feature", "properties": {"norad_id": 30403, "name": "FENGYUN 1C DEB", "group": "fengyun-1c-debris", "lat": -80.84648442173456, "lon": 162.08862348674543, "alt_km": 807.2235489731711, "timestamp": "2025-12-27T08:36:18.658612+00:00", "meta": {"OBJECT_NAME": "FENGYUN 1C DEB", "OBJECT_ID": "1999-025ADS", "EPOCH": "2025-12-27T03:56:58.403904", "MEAN_MOTION": 14.21647167, "ECCENTRICITY": 0.0074513, "INCLINATION": 99.0585, "RA_OF_ASC_NODE": 79.9686, "ARG_OF_PERICENTER": 340.4889, "MEAN_ANOMALY": 19.3439, "EPHEMERIS_TYPE": 0, "CLASSIFICATION_TYPE": "U", "NORAD_CAT_ID": 30403, "ELEMENT_SET_NO": 999, "REV_AT_EPOCH": 97011, "BSTAR": 0.0021536, "MEAN_MOTION_DOT": 4.817e-05, "MEAN_MOTION_DDOT": 0}, "tle": {"line1": "1 30403U 99025ADS 25361.16456486  .00004817  00000+0  21536-2 0  9990", "line2": "2 30403  99.0585  79.9686 0074513 340.4889  19.3439 14.21647167970115"}}, "geometry": {"type": "Point", "coordinates": [162.08862348674543, -80.84648442173456]}}, {"type": "Feature", "properties": {"norad_id": 30404, "name": "FENGYUN 1C DEB", "group": "fengyun-1c-debris", "lat": 68.14046940999522, "lon": 66.98066606065291, "alt_km": 879.0813722096291, "timestamp": "2025-12-27T08:36:18.658623+00:00", "meta": {"OBJECT_NAME": "FENGYUN 1C DEB", "OBJECT_ID": "1999-025ADT", "EPOCH": "2025-12-27T04:39:54.273024", "MEAN_MOTION": 13.34362251, "ECCENTRICITY": 0.0375943, "INCLINATION": 99.8314, "RA_OF_ASC_NODE": 92.4311, "ARG_OF_PERICENTER": 101.8832, "MEAN_ANOMALY": 262.47, "EPHEMERIS_TYPE": 0, "CLASSIFICATION_TYPE": "U", "NORAD_CAT_ID": 30404, "ELEMENT_SET_NO": 999, "REV_AT_EPOCH": 58229, "BSTAR": 0.00073299, "MEAN_MOTION_DOT": 5.06e-06, "MEAN_MOTION_DDOT": 0}, "tle": {"line1": "1 30404U 99025ADT 25361.19437816  .00000506  00000+0  73299-3 0  9995", "line2": "2 30404  99.8314  92.4311 0375943 101.8832 262.4700 13.34362251582298"}}, "geometry": {"type": "Point", "coordinates": [66.98066606065291, 68.14046940999522]}}, {"type": "Feature", "properties": {"norad_id": 30405, "name": "FENGYUN 1C DEB", "group": "fengyun-1c-debris", "lat": 61.46340148590327, "lon": -67.99621920684075, "alt_km": 752.6968565030766, "timestamp": "2025-12-27T08:36:18.658633+00:00", "meta": {"OBJECT_NAME": "FENGYUN 1C DEB", "OBJECT_ID": "1999-025ADU", "EPOCH": "2025-12-27T04:50:18.431808", "MEAN_MOTION": 14.29035155, "ECCENTRICITY": 0.0050711, "INCLINATION": 98.7926, "RA_OF_ASC_NODE": 95.309, "ARG_OF_PERICENTER": 112.6115, "MEAN_ANOMALY": 277.5827, "EPHEMERIS_TYPE": 0, "CLASSIFICATION_TYPE": "U", "NORAD_CAT_ID": 30405, "ELEMENT_SET_NO": 999, "REV_AT_EPOCH": 97602, "BSTAR": 0.0018749, "MEAN_MOTION_DOT": 4.77e-05, "MEAN_MOTION_DDOT": 0}, "tle": {"line1": "1 30405U 99025ADU 25361.20160222  .00004770  00000+0  18749-2 0  9997", "line2": "2 30405  98.7926  95.3090 0050711 112.6115 277.5827 14.29035155976029"}}, "geometry": {"type": "Point", "coordinates": [-67.99621920684075, 61.46340148590327]}}, {"type": "Feature", "properties": {"norad_id": 30406, "name": "FENGYUN 1C DEB", "group": "fengyun-1c-debris", "lat": 15.93570145087573, "lon": -112.19374278986595, "alt_km": 912.3560636882567, "timestamp": "2025-12-27T08:36:18.658643+00:00", "meta": {"OBJECT_NAME": "FENGYUN 1C DEB", "OBJECT_ID": "1999-025ADV", "EPOCH": "2025-12-27T03:59:40.257024", "MEAN_MOTION": 13.59272434, "ECCENTRICITY": 0.0282765, "INCLINATION": 98.6204, "RA_OF_ASC_NODE": 250.1194, "ARG_OF_PERICENTER": 322.5343, "MEAN_ANOMALY": 191.5298, "EPHEMERIS_TYPE": 0, "CLASSIFICATION_TYPE": "U", "NORAD_CAT_ID": 30406, "ELEMENT_SET_NO": 999, "REV_AT_EPOCH": 93362, "BSTAR": 0.0024523, "MEAN_MOTION_DOT": 2.313e-05, "MEAN_MOTION_DDOT": 0}, "tle": {"line1": "1 30406U 99025ADV 25361.16643816  .00002313  00000+0  24523-2 0  9996", "line2": "2 30406  98.6204 250.1194 0282765 322.5343 191.5298 13.59272434933626"}}, "geometry": {"type": "Point", "coordinates": [-112.19374278986595, 15.93570145087573]}}, {"type": "Feature", "properties": {"norad_id": 30409, "name": "FENGYUN 1C DEB", "group": "fengyun-1c-debris", "lat": -64.60480142947394, "lon": 6.064773914054455, "alt_km": 782.6184899340651, "timestamp": "2025-12-27T08:36:18.658653+00:00", "meta": {"OBJECT_NAME": "FENGYUN 1C DEB", "OBJECT_ID": "1999-025ADY", "EPOCH": "2025-12-26T22:46:12.870048", "MEAN_MOTION": 14.03778798, "ECCENTRICITY": 0.0167239, "INCLINATION": 98.4743, "RA_OF_ASC_NODE": 347.3795, "ARG_OF_PERICENTER": 325.5709, "MEAN_ANOMALY": 59.7101, "EPHEMERIS_TYPE": 0, "CLASSIFICATION_TYPE": "U", "NORAD_CAT_ID": 30409, "ELEMENT_SET_NO": 999, "REV_AT_EPOCH": 96629, "BSTAR": 0.0009625, "MEAN_MOTION_DOT": 1.675e-05, "MEAN_MOTION_DDOT": 0}, "tle": {"line1": "1 30409U 99025ADY 25360.94876007  .00001675  00000+0  96250-3 0  9991", "line2": "2 30409  98.4743 347.3795 0167239 325.5709  59.7101 14.03778798966299"}}, "geometry": {"type": "Point", "coordinates": [6.064773914054455, -64.60480142947394]}}]}